      2.10          N: GNSS NAV DATA                        RINEX VERSION / TYPE
fic2rin                                 04/01/2021 00:17:22 PGM / RUN BY / DATE
                                                            END OF HEADER
17 21  3 31  4  0  0.0 4.185591824353e-04 6.252776074689e-12 0.000000000000e+00
    1.320000000000e+02-1.194687500000e+02 4.165530653929e-09 1.158000703492e-01
   -6.467103958130e-06 1.337650057394e-02 7.444992661476e-06 5.153574321747e+03
    2.736000000000e+05-1.937150955200e-07 2.851148814364e+00 9.313225746155e-09
    9.827147296702e-01 2.483125000000e+02-1.571586716564e+00-8.310703317009e-09
   -3.771585673111e-10 1.000000000000e+00 2.151000000000e+03 0.000000000000e+00
    2.400000000000e+00 0.000000000000e+00-1.117587089539e-08 1.320000000000e+02
    2.664000000000e+05 4.000000000000e+00
14 21  3 31  4  0  0.0 9.874161332846e-05-1.477928890381e-12 0.000000000000e+00
    5.600000000000e+01 6.621875000000e+01 4.941991568071e-09-2.709763006083e+00
    3.580003976822e-06 5.116035463288e-04 1.505017280579e-06 5.153744792938e+03
    2.736000000000e+05-5.587935447693e-09 1.788976071040e+00-5.587935447693e-08
    9.574531773108e-01 3.464687500000e+02 2.374289313674e+00-8.688933357522e-09
    3.092985978138e-10 1.000000000000e+00 2.151000000000e+03 0.000000000000e+00
    2.400000000000e+00 0.000000000000e+00-7.916241884232e-09 8.240000000000e+02
    2.664000000000e+05 4.000000000000e+00
11 21  3 31  4  0  0.0 1.614727079868e-05 1.068656274583e-11 0.000000000000e+00
    4.000000000000e+01-8.321875000000e+01 5.267005106190e-09-2.794590527421e+00
   -4.246830940247e-06 1.529768493492e-02 1.152418553829e-05 5.154083665848e+03
    2.736000000000e+05 4.284083843231e-08-2.930225070767e+00 2.179294824600e-07
    9.146581758015e-01 1.253125000000e+02 2.089507518935e+00-8.141767708734e-09
    3.928735076157e-12 1.000000000000e+00 2.151000000000e+03 0.000000000000e+00
    2.400000000000e+00 6.300000000000e+01-1.257285475731e-08 4.000000000000e+01
    2.664000000000e+05 4.000000000000e+00
23 21  3 31  4  0  0.0 1.157745718956e-04-1.591615728103e-12 0.000000000000e+00
    1.730000000000e+02 3.284375000000e+01 4.967349767199e-09-2.414397016595e+00
    1.745298504829e-06 1.086022006348e-03 5.668029189110e-06 5.153641372681e+03
    2.736000000000e+05-4.656612873077e-08-1.423696043043e+00-2.421438694000e-08
    9.631760674865e-01 2.724062500000e+02 2.540969404181e+00-8.278201963197e-09
    3.510860527148e-10 1.000000000000e+00 2.151000000000e+03 0.000000000000e+00
    2.400000000000e+00 0.000000000000e+00-8.381903171539e-09 4.290000000000e+02
    2.664000000000e+05 4.000000000000e+00
22 21  3 31  3 59 44.0-6.487932987511e-04 8.412825991400e-12 0.000000000000e+00
    2.400000000000e+01 4.109375000000e+01 5.759525621646e-09-8.465383858360e-01
    2.199783921242e-06 7.063577650115e-03 5.355104804039e-06 5.153562227249e+03
    2.735840000000e+05-5.960464477539e-08-1.495093969099e+00-4.656612873077e-08
    9.337961959254e-01 2.627187500000e+02-1.008614876492e+00-8.849654337911e-09
    4.607334771129e-10 1.000000000000e+00 2.151000000000e+03 0.000000000000e+00
    2.400000000000e+00 0.000000000000e+00-1.816079020500e-08 2.400000000000e+01
    2.667000000000e+05 4.000000000000e+00
23 21  3 31  4 29 36.0 1.157713122666e-04-1.591615728103e-12 0.000000000000e+00
    1.740000000000e+02 3.084375000000e+01 4.985564811643e-09-2.155697313263e+00
    1.644715666771e-06 1.086354954168e-03 5.844980478287e-06 5.153640462875e+03
    2.753760000000e+05-5.401670932770e-08-1.423710774628e+00-2.793967723846e-08
    9.631766672829e-01 2.688437500000e+02 2.541320081736e+00-8.283559329210e-09
    3.521575259173e-10 1.000000000000e+00 2.151000000000e+03 0.000000000000e+00
    2.400000000000e+00 0.000000000000e+00-8.381903171539e-09 4.300000000000e+02
    2.682000000000e+05 4.000000000000e+00
 3 21  3 31  6  0  0.0-1.233029179275e-04-1.080024958355e-11 0.000000000000e+00
    1.000000000000e+01 3.156250000000e+01 4.961635243452e-09-2.080784809908e+00
    1.680105924606e-06 3.342950716615e-03 5.511566996574e-06 5.153617334366e+03
    2.808000000000e+05 7.450580596924e-08-1.397657461746e+00 3.352761268616e-08
    9.683163739437e-01 2.785937500000e+02 8.286109904023e-01-8.295345534438e-09
    4.168030758068e-10 1.000000000000e+00 2.151000000000e+03 0.000000000000e+00
    2.400000000000e+00 0.000000000000e+00 1.862645149231e-09 1.000000000000e+01
    2.736000000000e+05 4.000000000000e+00
 2 21  3 31  6  0  0.0-5.912589840591e-04-3.524291969370e-12 0.000000000000e+00
    5.200000000000e+01-2.265625000000e+01 4.321251426038e-09-7.290625984179e-01
   -1.292675733566e-06 2.029294765089e-02 1.404806971550e-05 5.153652435303e+03
    2.808000000000e+05-2.924352884293e-07-2.518531930324e+00 1.341104507446e-07
    9.626380954549e-01 1.190312500000e+02-1.529042824943e+00-8.228199880409e-09
    4.750197864808e-10 1.000000000000e+00 2.151000000000e+03 0.000000000000e+00
    2.400000000000e+00 0.000000000000e+00-1.769512891769e-08 5.200000000000e+01
    2.736000000000e+05 4.000000000000e+00
 1 21  3 31  6  0  0.0 7.283599115908e-04-9.322320693173e-12 0.000000000000e+00
    1.050000000000e+02-1.950000000000e+01 3.851589005571e-09-9.832183289785e-01
   -8.847564458847e-07 1.061363995541e-02 1.207180321217e-05 5.153689136505e+03
    2.808000000000e+05 1.639127731323e-07-2.435929453256e+00 1.601874828339e-07
    9.838657243566e-01 1.593437500000e+02 8.239601222064e-01-7.707106746217e-09
    3.875161416028e-10 1.000000000000e+00 2.151000000000e+03 0.000000000000e+00
    2.400000000000e+00 0.000000000000e+00 4.656612873077e-09 1.050000000000e+02
    2.736000000000e+05 4.000000000000e+00
 9 21  3 31  6  0  0.0-3.353445790708e-04-2.842170943040e-12 0.000000000000e+00
    2.200000000000e+01-5.106250000000e+01 4.877703175916e-09 1.683481503693e+00
   -2.827495336533e-06 1.829449669458e-03 8.078292012215e-06 5.153539371490e+03
    2.808000000000e+05-6.519258022308e-08-3.674335721460e-01-3.725290298462e-09
    9.535042259869e-01 2.157500000000e+02 1.830858246778e+00-8.214270728776e-09
   -6.896715847326e-10 1.000000000000e+00 2.151000000000e+03 0.000000000000e+00
    2.400000000000e+00 0.000000000000e+00 1.396983861923e-09 2.200000000000e+01
    2.736000000000e+05 4.000000000000e+00
 5 21  3 31  6  0  0.0-3.772927448153e-05-1.023181539495e-12 0.000000000000e+00
    8.700000000000e+01 3.171875000000e+01 5.310221192027e-09 1.784623348474e+00
    1.646578311920e-06 5.997424246743e-03 5.751848220825e-06 5.153835021973e+03
    2.808000000000e+05-1.564621925354e-07-1.433760081177e+00-3.166496753693e-08
    9.552642758943e-01 2.682500000000e+02 8.807897160842e-01-8.460352407637e-09
    4.535903224290e-10 1.000000000000e+00 2.151000000000e+03 0.000000000000e+00
    2.400000000000e+00 0.000000000000e+00-1.117587089539e-08 8.700000000000e+01
    2.736000000000e+05 4.000000000000e+00
 4 21  3 31  6  0  0.0-1.892698928714e-04-2.046363078989e-12 0.000000000000e+00
    3.700000000000e+01-4.928125000000e+01 4.739483132782e-09 6.888273085594e-01
   -2.562999725342e-06 1.147565082647e-03 8.516013622284e-06 5.153765117645e+03
    2.808000000000e+05-5.215406417847e-08-3.170720350258e-01-8.009374141693e-08
    9.607031434507e-01 2.102812500000e+02-2.974194309805e+00-8.198555788471e-09
   -7.025292631637e-10 1.000000000000e+00 2.151000000000e+03 0.000000000000e+00
    2.400000000000e+00 0.000000000000e+00-4.190951585770e-09 2.930000000000e+02
    2.736000000000e+05 4.000000000000e+00
10 21  3 31  6  0  0.0-9.217439219356e-05-7.844391802792e-12 0.000000000000e+00
    5.600000000000e+01 2.550000000000e+01 4.869845705764e-09-3.040194997102e+00
    1.294538378716e-06 6.563358940184e-03 5.969777703285e-06 5.153663309097e+03
    2.808000000000e+05-7.078051567078e-08-1.400567824620e+00-1.434236764908e-07
    9.682054496433e-01 2.697812500000e+02-2.567439316633e+00-8.134267396316e-09
    3.778728827795e-10 1.000000000000e+00 2.151000000000e+03 0.000000000000e+00
    2.400000000000e+00 0.000000000000e+00 2.328306436539e-09 5.600000000000e+01
    2.736000000000e+05 4.000000000000e+00
 8 21  3 31  6  0  0.0-1.574447378516e-05-1.364242052659e-12 0.000000000000e+00
    3.100000000000e+01-1.027812500000e+02 4.357324357192e-09 1.231975040408e+00
   -5.332753062248e-06 6.324643385597e-03 5.677342414856e-06 5.153578720093e+03
    2.808000000000e+05 2.235174179077e-08 2.773998517407e+00 6.519258022308e-08
    9.679506210172e-01 2.733125000000e+02 1.673454373520e-02-8.225342618536e-09
   -3.589435228671e-10 1.000000000000e+00 2.151000000000e+03 0.000000000000e+00
    2.400000000000e+00 0.000000000000e+00 5.122274160385e-09 3.100000000000e+01
    2.736000000000e+05 4.000000000000e+00
21 21  3 31  6  0  0.0 1.073488965631e-04 2.955857780762e-12 0.000000000000e+00
    2.000000000000e+01-4.193750000000e+01 4.374825086168e-09 1.382740859976e+00
   -2.499669790268e-06 2.421155676711e-02 1.149810850620e-05 5.153709215164e+03
    2.808000000000e+05 4.488974809647e-07-2.518095911979e+00-4.731118679047e-07
    9.567656643303e-01 1.560000000000e+02-1.162689862105e+00-7.871756461682e-09
    3.210848030423e-10 1.000000000000e+00 2.151000000000e+03 0.000000000000e+00
    2.400000000000e+00 0.000000000000e+00-1.024454832077e-08 2.000000000000e+01
    2.736000000000e+05 4.000000000000e+00
12 21  3 31  6  0  0.0-2.139341086149e-05-5.115907697473e-12 0.000000000000e+00
    8.000000000000e+01 6.731250000000e+01 4.506973447820e-09-2.303874386644e+00
    3.492459654808e-06 8.490986889228e-03 1.775100827217e-06 5.153766384125e+03
    2.808000000000e+05 7.078051567078e-08 1.815176818269e+00-1.192092895508e-07
    9.739540345120e-01 3.520937500000e+02 1.191354355022e+00-8.313917736616e-09
    2.596536727606e-10 1.000000000000e+00 2.151000000000e+03 0.000000000000e+00
    2.400000000000e+00 0.000000000000e+00-1.257285475731e-08 8.000000000000e+01
    2.736000000000e+05 4.000000000000e+00
